MESAT1                  
1 60209U 24125G   25165.32950568  .00019940  00000+0  56163-3 0  9994
2 60209  97.2782  16.8945 0020275 118.8693 241.4589 15.36272388 52688
OOV-CUBE (TUBSAT-30)    
1 60240U 24128F   25165.46184866  .00003101  00000+0  25571-3 0  9998
2 60240  61.9965  65.4099 0052369  55.5193 305.0827 15.00285308 50895
COLIBRI-S (RS67S)       
1 61746U 24199M   25165.89297468  .00011149  00000+0  35431-3 0  9995
2 61746  97.3556  34.5209 0012960 156.6401 203.5433 15.32715342 80905
HORS 3 (RS81S)          
1 61753U 24199U   25165.88010827  .00014464  00000+0  43948-3 0  9999
2 61753  97.3524  34.6044 0011133 162.3478 197.8154 15.34103985 80917
HORS 4 (RS82S)          
1 61754U 24199V   25165.74999260  .00015128  00000+0  44872-3 0  9997
2 61754  97.3520  34.6175 0011277 162.6384 197.5247 15.34855110 80900
HORIZON (RS59S)         
1 61757U 24199Y   25165.79235601  .00022111  00000+0  58841-3 0  9998
2 61757  97.3543  35.2423 0011841 151.3843 208.8054 15.38155081 80943
SIT-2086                
1 61764U 24199AF  25165.89120130  .00010615  00000+0  30409-3 0  9993
2 61764  97.3525  35.0468 0009381 156.3859 203.7818 15.36055610 77781
MORDOVIA-IOT (RS50S)    
1 61765U 24199AG  25165.76806999  .00030133  00000+0  70300-3 0  9995
2 61765  97.3522  35.8590 0011260 146.1044 214.0925 15.42111298 77837
RUZAEVKA 390 (RS44S)    
1 61766U 24199AH  25165.91599028  .00027052  00000+0  66054-3 0  9992
2 61766  97.3523  35.8104 0011275 145.9082 214.2891 15.40756428 77848
HYPERVIEW 1G (RS66S)    
1 61772U 24199AP  25165.88917292  .00016234  00000+0  46797-3 0  9994
2 61772  97.3522  34.7362 0014210 166.3228 193.8403 15.35699309 77770
ALTAIR (RS65S)          
1 61779U 24199AW  25165.90600653  .00007641  00000+0  27282-3 0  9994
2 61779  97.3545  33.6992 0015732 172.0450 188.1042 15.29021960 80854
ASRTU-1 (AO-123)        
1 61781U 24199AY  25165.88310258  .00006049  00000+0  22044-3 0  9995
2 61781  97.3536  33.5615 0016020 172.7330 187.4145 15.28433373 77691
TUSUR GO (RS78S)        
1 61782U 24199AZ  25165.73255885  .00022377  00000+0  61921-3 0  9993
2 61782  97.3514  34.6378 0014491 166.0883 194.0763 15.36906380 77754
SAMSAT-IONOSPHERE (RS7*)
1 61784U 24199BB  25165.72741934  .00015877  00000+0  48888-3 0  9993
2 61784  97.3528  34.2090 0015163 169.2015 190.9556 15.33608298 80873
