[
  {
    "OBJECT_NAME": "MESAT1",
    "OBJECT_ID": "2024-125G",
    "EPOCH": "2025-06-14T07:54:29.290752",
    "MEAN_MOTION": 15.36272388,
    "ECCENTRICITY": 0.0020275,
    "INCLINATION": 97.2782,
    "RA_OF_ASC_NODE": 16.8945,
    "ARG_OF_PERICENTER": 118.8693,
    "MEAN_ANOMALY": 241.4589,
    "EPHEMERIS_TYPE": 0,
    "CLASSIFICATION_TYPE": "U",
    "NORAD_CAT_ID": 60209,
    "ELEMENT_SET_NO": 999,
    "REV_AT_EPOCH": 5268,
    "BSTAR": 0.00056163,
    "MEAN_MOTION_DOT": 0.0001994,
    "MEAN_MOTION_DDOT": 0
  },
  {
    "OBJECT_NAME": "OOV-CUBE (TUBSAT-30)",
    "OBJECT_ID": "2024-128F",
    "EPOCH": "2025-06-14T11:05:03.724224",
    "MEAN_MOTION": 15.00285308,
    "ECCENTRICITY": 0.0052369,
    "INCLINATION": 61.9965,
    "RA_OF_ASC_NODE": 65.4099,
    "ARG_OF_PERICENTER": 55.5193,
    "MEAN_ANOMALY": 305.0827,
    "EPHEMERIS_TYPE": 0,
    "CLASSIFICATION_TYPE": "U",
    "NORAD_CAT_ID": 60240,
    "ELEMENT_SET_NO": 999,
    "REV_AT_EPOCH": 5089,
    "BSTAR": 0.00025571,
    "MEAN_MOTION_DOT": 3.101e-05,
    "MEAN_MOTION_DDOT": 0
  },
  {
    "OBJECT_NAME": "COLIBRI-S (RS67S)",
    "OBJECT_ID": "2024-199M",
    "EPOCH": "2025-06-14T21:25:53.012352",
    "MEAN_MOTION": 15.32715342,
    "ECCENTRICITY": 0.001296,
    "INCLINATION": 97.3556,
    "RA_OF_ASC_NODE": 34.5209,
    "ARG_OF_PERICENTER": 156.6401,
    "MEAN_ANOMALY": 203.5433,
    "EPHEMERIS_TYPE": 0,
    "CLASSIFICATION_TYPE": "U",
    "NORAD_CAT_ID": 61746,
    "ELEMENT_SET_NO": 999,
    "REV_AT_EPOCH": 8090,
    "BSTAR": 0.00035431,
    "MEAN_MOTION_DOT": 0.00011149,
    "MEAN_MOTION_DDOT": 0
  },
  {
    "OBJECT_NAME": "HORS 3 (RS81S)",
    "OBJECT_ID": "2024-199U",
    "EPOCH": "2025-06-14T21:07:21.354528",
    "MEAN_MOTION": 15.34103985,
    "ECCENTRICITY": 0.0011133,
    "INCLINATION": 97.3524,
    "RA_OF_ASC_NODE": 34.6044,
    "ARG_OF_PERICENTER": 162.3478,
    "MEAN_ANOMALY": 197.8154,
    "EPHEMERIS_TYPE": 0,
    "CLASSIFICATION_TYPE": "U",
    "NORAD_CAT_ID": 61753,
    "ELEMENT_SET_NO": 999,
    "REV_AT_EPOCH": 8091,
    "BSTAR": 0.00043948,
    "MEAN_MOTION_DOT": 0.00014464,
    "MEAN_MOTION_DDOT": 0
  },
  {
    "OBJECT_NAME": "HORS 4 (RS82S)",
    "OBJECT_ID": "2024-199V",
    "EPOCH": "2025-06-14T17:59:59.360640",
    "MEAN_MOTION": 15.3485511,
    "ECCENTRICITY": 0.0011277,
    "INCLINATION": 97.352,
    "RA_OF_ASC_NODE": 34.6175,
    "ARG_OF_PERICENTER": 162.6384,
    "MEAN_ANOMALY": 197.5247,
    "EPHEMERIS_TYPE": 0,
    "CLASSIFICATION_TYPE": "U",
    "NORAD_CAT_ID": 61754,
    "ELEMENT_SET_NO": 999,
    "REV_AT_EPOCH": 8090,
    "BSTAR": 0.00044872,
    "MEAN_MOTION_DOT": 0.00015128,
    "MEAN_MOTION_DDOT": 0
  },
  {
    "OBJECT_NAME": "HORIZON (RS59S)",
    "OBJECT_ID": "2024-199Y",
    "EPOCH": "2025-06-14T19:00:59.559264",
    "MEAN_MOTION": 15.38155081,
    "ECCENTRICITY": 0.0011841,
    "INCLINATION": 97.3543,
    "RA_OF_ASC_NODE": 35.2423,
    "ARG_OF_PERICENTER": 151.3843,
    "MEAN_ANOMALY": 208.8054,
    "EPHEMERIS_TYPE": 0,
    "CLASSIFICATION_TYPE": "U",
    "NORAD_CAT_ID": 61757,
    "ELEMENT_SET_NO": 999,
    "REV_AT_EPOCH": 8094,
    "BSTAR": 0.00058841,
    "MEAN_MOTION_DOT": 0.00022111,
    "MEAN_MOTION_DDOT": 0
  },
  {
    "OBJECT_NAME": "SIT-2086",
    "OBJECT_ID": "2024-199AF",
    "EPOCH": "2025-06-14T21:23:19.792320",
    "MEAN_MOTION": 15.3605561,
    "ECCENTRICITY": 0.0009381,
    "INCLINATION": 97.3525,
    "RA_OF_ASC_NODE": 35.0468,
    "ARG_OF_PERICENTER": 156.3859,
    "MEAN_ANOMALY": 203.7818,
    "EPHEMERIS_TYPE": 0,
    "CLASSIFICATION_TYPE": "U",
    "NORAD_CAT_ID": 61764,
    "ELEMENT_SET_NO": 999,
    "REV_AT_EPOCH": 7778,
    "BSTAR": 0.00030409,
    "MEAN_MOTION_DOT": 0.00010615,
    "MEAN_MOTION_DDOT": 0
  },
  {
    "OBJECT_NAME": "MORDOVIA-IOT (RS50S)",
    "OBJECT_ID": "2024-199AG",
    "EPOCH": "2025-06-14T18:26:01.247136",
    "MEAN_MOTION": 15.42111298,
    "ECCENTRICITY": 0.001126,
    "INCLINATION": 97.3522,
    "RA_OF_ASC_NODE": 35.859,
    "ARG_OF_PERICENTER": 146.1044,
    "MEAN_ANOMALY": 214.0925,
    "EPHEMERIS_TYPE": 0,
    "CLASSIFICATION_TYPE": "U",
    "NORAD_CAT_ID": 61765,
    "ELEMENT_SET_NO": 999,
    "REV_AT_EPOCH": 7783,
    "BSTAR": 0.000703,
    "MEAN_MOTION_DOT": 0.00030133,
    "MEAN_MOTION_DDOT": 0
  },
  {
    "OBJECT_NAME": "RUZAEVKA 390 (RS44S)",
    "OBJECT_ID": "2024-199AH",
    "EPOCH": "2025-06-14T21:59:01.560192",
    "MEAN_MOTION": 15.40756428,
    "ECCENTRICITY": 0.0011275,
    "INCLINATION": 97.3523,
    "RA_OF_ASC_NODE": 35.8104,
    "ARG_OF_PERICENTER": 145.9082,
    "MEAN_ANOMALY": 214.2891,
    "EPHEMERIS_TYPE": 0,
    "CLASSIFICATION_TYPE": "U",
    "NORAD_CAT_ID": 61766,
    "ELEMENT_SET_NO": 999,
    "REV_AT_EPOCH": 7784,
    "BSTAR": 0.00066054,
    "MEAN_MOTION_DOT": 0.00027052,
    "MEAN_MOTION_DDOT": 0
  },
  {
    "OBJECT_NAME": "HYPERVIEW 1G (RS66S)",
    "OBJECT_ID": "2024-199AP",
    "EPOCH": "2025-06-14T21:20:24.540288",
    "MEAN_MOTION": 15.35699309,
    "ECCENTRICITY": 0.001421,
    "INCLINATION": 97.3522,
    "RA_OF_ASC_NODE": 34.7362,
    "ARG_OF_PERICENTER": 166.3228,
    "MEAN_ANOMALY": 193.8403,
    "EPHEMERIS_TYPE": 0,
    "CLASSIFICATION_TYPE": "U",
    "NORAD_CAT_ID": 61772,
    "ELEMENT_SET_NO": 999,
    "REV_AT_EPOCH": 7777,
    "BSTAR": 0.00046797,
    "MEAN_MOTION_DOT": 0.00016234,
    "MEAN_MOTION_DDOT": 0
  },
  {
    "OBJECT_NAME": "ALTAIR (RS65S)",
    "OBJECT_ID": "2024-199AW",
    "EPOCH": "2025-06-14T21:44:38.964192",
    "MEAN_MOTION": 15.2902196,
    "ECCENTRICITY": 0.0015732,
    "INCLINATION": 97.3545,
    "RA_OF_ASC_NODE": 33.6992,
    "ARG_OF_PERICENTER": 172.045,
    "MEAN_ANOMALY": 188.1042,
    "EPHEMERIS_TYPE": 0,
    "CLASSIFICATION_TYPE": "U",
    "NORAD_CAT_ID": 61779,
    "ELEMENT_SET_NO": 999,
    "REV_AT_EPOCH": 8085,
    "BSTAR": 0.00027282,
    "MEAN_MOTION_DOT": 7.641e-05,
    "MEAN_MOTION_DDOT": 0
  },
  {
    "OBJECT_NAME": "ASRTU-1 (AO-123)",
    "OBJECT_ID": "2024-199AY",
    "EPOCH": "2025-06-14T21:11:40.062912",
    "MEAN_MOTION": 15.28433373,
    "ECCENTRICITY": 0.001602,
    "INCLINATION": 97.3536,
    "RA_OF_ASC_NODE": 33.5615,
    "ARG_OF_PERICENTER": 172.733,
    "MEAN_ANOMALY": 187.4145,
    "EPHEMERIS_TYPE": 0,
    "CLASSIFICATION_TYPE": "U",
    "NORAD_CAT_ID": 61781,
    "ELEMENT_SET_NO": 999,
    "REV_AT_EPOCH": 7769,
    "BSTAR": 0.00022044,
    "MEAN_MOTION_DOT": 6.049e-05,
    "MEAN_MOTION_DDOT": 0
  },
  {
    "OBJECT_NAME": "TUSUR GO (RS78S)",
    "OBJECT_ID": "2024-199AZ",
    "EPOCH": "2025-06-14T17:34:53.084640",
    "MEAN_MOTION": 15.3690638,
    "ECCENTRICITY": 0.0014491,
    "INCLINATION": 97.3514,
    "RA_OF_ASC_NODE": 34.6378,
    "ARG_OF_PERICENTER": 166.0883,
    "MEAN_ANOMALY": 194.0763,
    "EPHEMERIS_TYPE": 0,
    "CLASSIFICATION_TYPE": "U",
    "NORAD_CAT_ID": 61782,
    "ELEMENT_SET_NO": 999,
    "REV_AT_EPOCH": 7775,
    "BSTAR": 0.00061921,
    "MEAN_MOTION_DOT": 0.00022377,
    "MEAN_MOTION_DDOT": 0
  },
  {
    "OBJECT_NAME": "SAMSAT-IONOSPHERE (RS75S)",
    "OBJECT_ID": "2024-199BB",
    "EPOCH": "2025-06-14T17:27:29.030976",
    "MEAN_MOTION": 15.33608298,
    "ECCENTRICITY": 0.0015163,
    "INCLINATION": 97.3528,
    "RA_OF_ASC_NODE": 34.209,
    "ARG_OF_PERICENTER": 169.2015,
    "MEAN_ANOMALY": 190.9556,
    "EPHEMERIS_TYPE": 0,
    "CLASSIFICATION_TYPE": "U",
    "NORAD_CAT_ID": 61784,
    "ELEMENT_SET_NO": 999,
    "REV_AT_EPOCH": 8087,
    "BSTAR": 0.00048888,
    "MEAN_MOTION_DOT": 0.00015877,
    "MEAN_MOTION_DDOT": 0
  }
]